start=new Date('2021-09-12T00:00:00.000Z').valueOf();
sats=[{"CENTER_NAME":"EARTH","NORAD_CAT_ID":"47758","MEAN_MOTION":"15.06402982","EPOCH":"2021-09-11T18:03:52.277760","APOAPSIS":"552.869","SITE":"AFETR","REF_FRAME":"TEME","OBJECT_NAME":"STARLINK-2176","ARG_OF_PERICENTER":"171.4825","REV_AT_EPOCH":"3060","MEAN_ANOMALY":"188.6304","GP_ID":"184535896","TIME_SYSTEM":"UTC","MEAN_MOTION_DDOT":"0.0000000000000","PERIOD":"95.592","CLASSIFICATION_TYPE":"U","ELEMENT_SET_NO":"999","RCS_SIZE":"LARGE","RA_OF_ASC_NODE":"13.5709","BSTAR":"0.00009023700000","EPHEMERIS_TYPE":"0","INCLINATION":"53.0588","DECAY_DATE":null,"COUNTRY_CODE":"US","OBJECT_TYPE":"PAYLOAD","MEAN_ELEMENT_THEORY":"SGP4","PERIAPSIS":"541.540","TLE_LINE2":"2 47758  53.0588  13.5709 0008179 171.4825 188.6304 15.06402982 30606","MEAN_MOTION_DOT":"0.00001061","OBJECT_ID":"2021-017AN","LAUNCH_DATE":"2021-03-04","SEMIMAJOR_AXIS":"6925.339","TLE_LINE1":"1 47758U 21017AN  21254.75268840  .00001061  00000-0  90237-4 0  9999","ECCENTRICITY":"0.00081790","FILE":"3113379"},{"LAUNCH_DATE":"2021-03-04","OBJECT_ID":"2021-017AP","MEAN_MOTION_DOT":"0.00335998","FILE":"3113379","TLE_LINE1":"1 47759U 21017AP  21254.77382358  .00335998  00000-0  74713-2 0  9991","SEMIMAJOR_AXIS":"6818.761","ECCENTRICITY":"0.00012410","DECAY_DATE":null,"COUNTRY_CODE":"US","BSTAR":"0.00747130000000","EPHEMERIS_TYPE":"0","INCLINATION":"53.0612","RA_OF_ASC_NODE":"6.2542","RCS_SIZE":"LARGE","PERIAPSIS":"439.780","TLE_LINE2":"2 47759  53.0612   6.2542 0001241  56.3690 303.7433 15.41858722 30691","OBJECT_TYPE":"PAYLOAD","MEAN_ELEMENT_THEORY":"SGP4","MEAN_ANOMALY":"303.7433","MEAN_MOTION_DDOT":"0.0000000000000","GP_ID":"184534145","TIME_SYSTEM":"UTC","REV_AT_EPOCH":"3069","OBJECT_NAME":"STARLINK-2177","ARG_OF_PERICENTER":"56.3690","ELEMENT_SET_NO":"999","PERIOD":"93.394","CLASSIFICATION_TYPE":"U","CENTER_NAME":"EARTH","REF_FRAME":"TEME","SITE":"AFETR","APOAPSIS":"441.472","NORAD_CAT_ID":"47759","EPOCH":"2021-09-11T18:34:18.357312","MEAN_MOTION":"15.41858722"},{"APOAPSIS":"548.372","SITE":"AFETR","EPOCH":"2021-09-11T15:33:55.610784","MEAN_MOTION":"15.06400871","NORAD_CAT_ID":"47760","REF_FRAME":"TEME","CENTER_NAME":"EARTH","CLASSIFICATION_TYPE":"U","PERIOD":"95.592","ELEMENT_SET_NO":"999","REV_AT_EPOCH":"3042","ARG_OF_PERICENTER":"114.4924","OBJECT_NAME":"STARLINK-2178","GP_ID":"184534395","MEAN_MOTION_DDOT":"0.0000000000000","TIME_SYSTEM":"UTC","MEAN_ANOMALY":"245.6239","MEAN_ELEMENT_THEORY":"SGP4","OBJECT_TYPE":"PAYLOAD","PERIAPSIS":"546.050","TLE_LINE2":"2 47760  53.0565  24.0107 0001676 114.4924 245.6239 15.06400871 30421","RA_OF_ASC_NODE":"24.0107","RCS_SIZE":"LARGE","DECAY_DATE":null,"COUNTRY_CODE":"US","EPHEMERIS_TYPE":"0","INCLINATION":"53.0565","BSTAR":"0.00002099800000","FILE":"3113379","TLE_LINE1":"1 47760U 21017AQ  21254.64856031  .00000031  00000-0  20998-4 0  9998","ECCENTRICITY":"0.00016760","SEMIMAJOR_AXIS":"6925.346","LAUNCH_DATE":"2021-03-04","OBJECT_ID":"2021-017AQ","MEAN_MOTION_DOT":"0.00000031"},{"CENTER_NAME":"EARTH","APOAPSIS":"547.837","SITE":"AFETR","NORAD_CAT_ID":"47761","EPOCH":"2021-09-11T17:53:14.562816","MEAN_MOTION":"15.06408417","REF_FRAME":"TEME","REV_AT_EPOCH":"3055","OBJECT_NAME":"STARLINK-2179","ARG_OF_PERICENTER":"101.4416","MEAN_ANOMALY":"258.6679","GP_ID":"184535646","TIME_SYSTEM":"UTC","MEAN_MOTION_DDOT":"0.0000000000000","PERIOD":"95.592","CLASSIFICATION_TYPE":"U","ELEMENT_SET_NO":"999","RA_OF_ASC_NODE":"13.6212","RCS_SIZE":"LARGE","DECAY_DATE":null,"COUNTRY_CODE":"US","BSTAR":"0.00001097500000","EPHEMERIS_TYPE":"0","INCLINATION":"53.0562","OBJECT_TYPE":"PAYLOAD","MEAN_ELEMENT_THEORY":"SGP4","PERIAPSIS":"546.538","TLE_LINE2":"2 47761  53.0562  13.6212 0000938 101.4416 258.6679 15.06408417 30552","OBJECT_ID":"2021-017AR","LAUNCH_DATE":"2021-03-04","MEAN_MOTION_DOT":"-0.00000118","FILE":"3113379","TLE_LINE1":"1 47761U 21017AR  21254.74530744 -.00000118  00000-0  10975-4 0  9991","SEMIMAJOR_AXIS":"6925.323","ECCENTRICITY":"0.00009380"},{"PERIOD":"95.592","CLASSIFICATION_TYPE":"U","ELEMENT_SET_NO":"999","OBJECT_NAME":"STARLINK-2180","ARG_OF_PERICENTER":"117.2322","REV_AT_EPOCH":"3034","MEAN_ANOMALY":"242.8802","TIME_SYSTEM":"UTC","GP_ID":"184535397","MEAN_MOTION_DDOT":"0.0000000000000","NORAD_CAT_ID":"47762","EPOCH":"2021-09-11T15:18:37.859616","MEAN_MOTION":"15.06401427","SITE":"AFETR","APOAPSIS":"548.130","REF_FRAME":"TEME","CENTER_NAME":"EARTH","TLE_LINE1":"1 47762U 21017AS  21254.63793819  .00001278  00000-0  10464-3 0  9993","ECCENTRICITY":"0.00013290","SEMIMAJOR_AXIS":"6925.344","FILE":"3113379","MEAN_MOTION_DOT":"0.00001278","LAUNCH_DATE":"2021-03-04","OBJECT_ID":"2021-017AS","MEAN_ELEMENT_THEORY":"SGP4","OBJECT_TYPE":"PAYLOAD","PERIAPSIS":"546.289","TLE_LINE2":"2 47762  53.0576  29.0975 0001329 117.2322 242.8802 15.06401427 30345","RCS_SIZE":"LARGE","RA_OF_ASC_NODE":"29.0975","BSTAR":"0.00010464000000","EPHEMERIS_TYPE":"0","INCLINATION":"53.0576","COUNTRY_CODE":"US","DECAY_DATE":null},{"MEAN_ANOMALY":"251.8395","GP_ID":"184534645","MEAN_MOTION_DDOT":"0.0000000000000","TIME_SYSTEM":"UTC","OBJECT_NAME":"STARLINK-2181","ARG_OF_PERICENTER":"108.2724","REV_AT_EPOCH":"3047","ELEMENT_SET_NO":"999","PERIOD":"95.592","CLASSIFICATION_TYPE":"U","CENTER_NAME":"EARTH","REF_FRAME":"TEME","NORAD_CAT_ID":"47763","EPOCH":"2021-09-11T17:18:05.771232","MEAN_MOTION":"15.06397073","SITE":"AFETR","APOAPSIS":"548.052","MEAN_MOTION_DOT":"-0.00000051","LAUNCH_DATE":"2021-03-04","OBJECT_ID":"2021-017AT","SEMIMAJOR_AXIS":"6925.358","TLE_LINE1":"1 47763U 21017AT  21254.72090013 -.00000051  00000-0  15480-4 0  9993","ECCENTRICITY":"0.00011980","FILE":"3113379","BSTAR":"0.00001548000000","EPHEMERIS_TYPE":"0","INCLINATION":"53.0568","COUNTRY_CODE":"US","DECAY_DATE":null,"RCS_SIZE":"LARGE","RA_OF_ASC_NODE":"18.6145","PERIAPSIS":"546.393","TLE_LINE2":"2 47763  53.0568  18.6145 0001198 108.2724 251.8395 15.06397073 30472","MEAN_ELEMENT_THEORY":"SGP4","OBJECT_TYPE":"PAYLOAD"},{"TLE_LINE2":"2 47764  53.0575  28.8514 0001481 119.5871 240.5265 15.06401957 30385","PERIAPSIS":"546.182","OBJECT_TYPE":"PAYLOAD","MEAN_ELEMENT_THEORY":"SGP4","BSTAR":"0.00012636000000","EPHEMERIS_TYPE":"0","INCLINATION":"53.0575","DECAY_DATE":null,"COUNTRY_CODE":"US","RCS_SIZE":"LARGE","RA_OF_ASC_NODE":"28.8514","TLE_LINE1":"1 47764U 21017AU  21254.69048395  .00001601  00000-0  12636-3 0  9996","SEMIMAJOR_AXIS":"6925.343","ECCENTRICITY":"0.00014810","FILE":"3113379","MEAN_MOTION_DOT":"0.00001601","LAUNCH_DATE":"2021-03-04","OBJECT_ID":"2021-017AU","REF_FRAME":"TEME","NORAD_CAT_ID":"47764","EPOCH":"2021-09-11T16:34:17.813280","MEAN_MOTION":"15.06401957","SITE":"AFETR","APOAPSIS":"548.233","CENTER_NAME":"EARTH","ELEMENT_SET_NO":"999","PERIOD":"95.592","CLASSIFICATION_TYPE":"U","MEAN_ANOMALY":"240.5265","GP_ID":"184534895","MEAN_MOTION_DDOT":"0.0000000000000","TIME_SYSTEM":"UTC","OBJECT_NAME":"STARLINK-2182","ARG_OF_PERICENTER":"119.5871","REV_AT_EPOCH":"3038"},{"ECCENTRICITY":"0.00012060","TLE_LINE1":"1 47765U 21017AV  21254.72550400 -.00000516  00000-0 -15739-4 0  9990","SEMIMAJOR_AXIS":"6925.364","FILE":"3113379","MEAN_MOTION_DOT":"-0.00000516","OBJECT_ID":"2021-017AV","LAUNCH_DATE":"2021-03-04","TLE_LINE2":"2 47765  53.0567   8.6892 0001206 125.9205 234.1896 15.06394835 30621","PERIAPSIS":"546.394","OBJECT_TYPE":"PAYLOAD","MEAN_ELEMENT_THEORY":"SGP4","EPHEMERIS_TYPE":"0","INCLINATION":"53.0567","BSTAR":"-0.00001573900000","DECAY_DATE":null,"COUNTRY_CODE":"US","RCS_SIZE":"LARGE","RA_OF_ASC_NODE":"8.6892","ELEMENT_SET_NO":"999","CLASSIFICATION_TYPE":"U","PERIOD":"95.592","MEAN_MOTION_DDOT":"0.0000000000000","GP_ID":"184535147","TIME_SYSTEM":"UTC","MEAN_ANOMALY":"234.1896","ARG_OF_PERICENTER":"125.9205","OBJECT_NAME":"STARLINK-2183","REV_AT_EPOCH":"3062","REF_FRAME":"TEME","EPOCH":"2021-09-11T17:24:43.545600","MEAN_MOTION":"15.06394835","NORAD_CAT_ID":"47765","APOAPSIS":"548.065","SITE":"AFETR","CENTER_NAME":"EARTH"},{"CENTER_NAME":"EARTH","REF_FRAME":"TEME","NORAD_CAT_ID":"47766","EPOCH":"2021-09-11T17:00:50.056416","MEAN_MOTION":"15.06400900","SITE":"AFETR","APOAPSIS":"548.118","MEAN_ANOMALY":"253.6272","GP_ID":"184535897","TIME_SYSTEM":"UTC","MEAN_MOTION_DDOT":"0.0000000000000","OBJECT_NAME":"STARLINK-2184","ARG_OF_PERICENTER":"106.4861","REV_AT_EPOCH":"3032","ELEMENT_SET_NO":"999","PERIOD":"95.592","CLASSIFICATION_TYPE":"U","BSTAR":"0.00014877000000","INCLINATION":"53.0567","EPHEMERIS_TYPE":"0","COUNTRY_CODE":"US","DECAY_DATE":null,"RCS_SIZE":"LARGE","RA_OF_ASC_NODE":"28.7713","TLE_LINE2":"2 47766  53.0567  28.7713 0001310 106.4861 253.6272 15.06400900 30327","PERIAPSIS":"546.304","MEAN_ELEMENT_THEORY":"SGP4","OBJECT_TYPE":"PAYLOAD","MEAN_MOTION_DOT":"0.00001935","OBJECT_ID":"2021-017AW","LAUNCH_DATE":"2021-03-04","SEMIMAJOR_AXIS":"6925.346","TLE_LINE1":"1 47766U 21017AW  21254.70891269  .00001935  00000-0  14877-3 0  9995","ECCENTRICITY":"0.00013100","FILE":"3113379"},{"REF_FRAME":"TEME","NORAD_CAT_ID":"47767","MEAN_MOTION":"15.06404557","EPOCH":"2021-09-11T17:37:19.286400","APOAPSIS":"548.174","SITE":"AFETR","CENTER_NAME":"EARTH","ELEMENT_SET_NO":"999","PERIOD":"95.592","CLASSIFICATION_TYPE":"U","MEAN_ANOMALY":"253.1345","GP_ID":"184534146","MEAN_MOTION_DDOT":"0.0000000000000","TIME_SYSTEM":"UTC","OBJECT_NAME":"STARLINK-2185","ARG_OF_PERICENTER":"106.9798","REV_AT_EPOCH":"3060","TLE_LINE2":"2 47767  53.0569  13.6579 0001407 106.9798 253.1345 15.06404557 30603","PERIAPSIS":"546.225","MEAN_ELEMENT_THEORY":"SGP4","OBJECT_TYPE":"PAYLOAD","BSTAR":"0.00002845100000","EPHEMERIS_TYPE":"0","INCLINATION":"53.0569","DECAY_DATE":null,"COUNTRY_CODE":"US","RCS_SIZE":"LARGE","RA_OF_ASC_NODE":"13.6579","TLE_LINE1":"1 47767U 21017AX  21254.73425100  .00000142  00000-0  28451-4 0  9999","ECCENTRICITY":"0.00014070","SEMIMAJOR_AXIS":"6925.335","FILE":"3113379","MEAN_MOTION_DOT":"0.00000142","LAUNCH_DATE":"2021-03-04","OBJECT_ID":"2021-017AX"}];
